STARLINK-31741          
1 59550U 24074S   26068.13852445  .00003205  00000+0  12593-3 0  9997
2 59550  43.0023 346.3262 0001714 275.1195  84.9461 15.27586163105931
2025-313BE              
1 67482U 25313BE  26068.69721505  .00077178  00000+0  26504-2 0  9996
2 67482  97.3989 145.3568 0007208 335.3714  24.7181 15.29801687  7972
